{
    "links": {
        "self": "http://www.neowsapp.com/rest/v1/neo/54016457?api_key=iIulBulltgU6a56xZRHN4H3l9WmuAYTsLGpBGhQ2"
    },
    "id": "54016457",
    "neo_reference_id": "54016457",
    "name": "(2020 GX)",
    "designation": "2020 GX",
    "nasa_jpl_url": "http://ssd.jpl.nasa.gov/sbdb.cgi?sstr=54016457",
    "absolute_magnitude_h": 24.123,
    "estimated_diameter": {
        "kilometers": {
            "estimated_diameter_min": 0.0398065901,
            "estimated_diameter_max": 0.0890102414
        },
        "meters": {
            "estimated_diameter_min": 39.8065900845,
            "estimated_diameter_max": 89.0102413814
        },
        "miles": {
            "estimated_diameter_min": 0.0247346607,
            "estimated_diameter_max": 0.0553083827
        },
        "feet": {
            "estimated_diameter_min": 130.5990530129,
            "estimated_diameter_max": 292.0283603338
        }
    },
    "is_potentially_hazardous_asteroid": false,
    "close_approach_data": [
        {
            "close_approach_date": "2020-03-24",
            "close_approach_date_full": "2020-Mar-24 11:01",
            "epoch_date_close_approach": 1585047660000,
            "relative_velocity": {
                "kilometers_per_second": "18.8871144776",
                "kilometers_per_hour": "67993.6121193766",
                "miles_per_hour": "42248.5863749537"
            },
            "miss_distance": {
                "astronomical": "0.1288880333",
                "lunar": "50.1374449537",
                "kilometers": "19281375.250169071",
                "miles": "11980891.0191563398"
            },
            "orbiting_body": "Earth"
        }
    ],
    "orbital_data": {
        "orbit_id": "1",
        "orbit_determination_date": "2020-04-04 07:12:04",
        "first_observation_date": "2020-04-02",
        "last_observation_date": "2020-04-04",
        "data_arc_in_days": 2,
        "observations_used": 17,
        "orbit_uncertainty": "9",
        "minimum_orbit_intersection": ".0276899",
        "jupiter_tisserand_invariant": "4.552",
        "epoch_osculation": "2458942.5",
        "eccentricity": ".4825770652473815",
        "semi_major_axis": "1.383064027913824",
        "inclination": "28.95518838649486",
        "ascending_node_longitude": "14.03894170258154",
        "orbital_period": "594.1031509290376",
        "perihelion_distance": ".7156290482739485",
        "perihelion_argument": "77.74514228835875",
        "aphelion_distance": "2.0504990075537",
        "perihelion_time": "2458868.270122065040",
        "mean_anomaly": "44.97999381891427",
        "mean_motion": ".6059553790230613",
        "equinox": "J2000",
        "orbit_class": {
            "orbit_class_type": "APO",
            "orbit_class_description": "Near-Earth asteroid orbits which cross the Earth’s orbit similar to that of 1862 Apollo",
            "orbit_class_range": "a (semi-major axis) > 1.0 AU; q (perihelion) < 1.017 AU"
        }
    },
    "is_sentry_object": false
}